{"type": "FeatureCollection", "features": [ {"type": "Feature", "properties": {"norad_id": 34117, "name": "COSMOS 2251 DEB", "group": "cosmos-2251-debris", "lat": 9.541929094278865, "lon": 178.22848529664725, "alt_km": 759.5768223916411, "timestamp": "2025-12-03T10:52:57.849874+00:00", "meta": {"OBJECT_NAME": "COSMOS 2251 DEB", "OBJECT_ID": "1993-036KN", "EPOCH": "2025-12-03T03:25:55.981056", "MEAN_MOTION": 14.39948957, "ECCENTRICITY": 0.0054382, "INCLINATION": 74.0403, "RA_OF_ASC_NODE": 1.5589, "ARG_OF_PERICENTER": 80.8532, "MEAN_ANOMALY": 279.8769, "EPHEMERIS_TYPE": 0, "CLASSIFICATION_TYPE": "U", "NORAD_CAT_ID": 34117, "ELEMENT_SET_NO": 999, "REV_AT_EPOCH": 87985, "BSTAR": 0.00080297, "MEAN_MOTION_DOT": 2.546e-05, "MEAN_MOTION_DDOT": 0}, "tle": {"line1": "1 34117U 93036KN  25337.14300904  .00002546  00000+0  80297-3 0  9993", "line2": "2 34117  74.0403   1.5589 0054382  80.8532 279.8769 14.39948957879856"}}, "geometry": {"type": "Point", "coordinates": [178.22848529664725, 9.541929094278865]}}, {"type": "Feature", "properties": {"norad_id": 34118, "name": "COSMOS 2251 DEB", "group": "cosmos-2251-debris", "lat": -63.01901268096716, "lon": 122.51505615149517, "alt_km": 629.639828653817, "timestamp": "2025-12-03T10:52:57.849885+00:00", "meta": {"OBJECT_NAME": "COSMOS 2251 DEB", "OBJECT_ID": "1993-036KP", "EPOCH": "2025-12-03T03:37:48.051840", "MEAN_MOTION": 14.93285321, "ECCENTRICITY": 0.0060059, "INCLINATION": 73.9529, "RA_OF_ASC_NODE": 268.6981, "ARG_OF_PERICENTER": 101.2929, "MEAN_ANOMALY": 322.4268, "EPHEMERIS_TYPE": 0, "CLASSIFICATION_TYPE": "U", "NORAD_CAT_ID": 34118, "ELEMENT_SET_NO": 999, "REV_AT_EPOCH": 89033, "BSTAR": 0.0027301, "MEAN_MOTION_DOT": 0.00029702, "MEAN_MOTION_DDOT": 0}, "tle": {"line1": "1 34118U 93036KP  25337.15125060  .00029702  00000+0  27301-2 0  9992", "line2": "2 34118  73.9529 268.6981 0060059 101.2929 322.4268 14.93285321890336"}}, "geometry": {"type": "Point", "coordinates": [122.51505615149517, -63.01901268096716]}}, {"type": "Feature", "properties": {"norad_id": 34120, "name": "COSMOS 2251 DEB", "group": "cosmos-2251-debris", "lat": -46.16983782064697, "lon": 69.70516788934026, "alt_km": 1033.1442425637542, "timestamp": "2025-12-03T10:52:57.849897+00:00", "meta": {"OBJECT_NAME": "COSMOS 2251 DEB", "OBJECT_ID": "1993-036KR", "EPOCH": "2025-12-03T03:38:12.141888", "MEAN_MOTION": 13.98665212, "ECCENTRICITY": 0.0181567, "INCLINATION": 73.9919, "RA_OF_ASC_NODE": 232.8276, "ARG_OF_PERICENTER": 62.6848, "MEAN_ANOMALY": 85.7513, "EPHEMERIS_TYPE": 0, "CLASSIFICATION_TYPE": "U", "NORAD_CAT_ID": 34120, "ELEMENT_SET_NO": 999, "REV_AT_EPOCH": 85846, "BSTAR": 0.00048681, "MEAN_MOTION_DOT": 7.82e-06, "MEAN_MOTION_DDOT": 0}, "tle": {"line1": "1 34120U 93036KR  25337.15152942  .00000782  00000+0  48681-3 0  9996", "line2": "2 34120  73.9919 232.8276 0181567  62.6848  85.7513 13.98665212858465"}}, "geometry": {"type": "Point", "coordinates": [69.70516788934026, -46.16983782064697]}}, {"type": "Feature", "properties": {"norad_id": 34121, "name": "COSMOS 2251 DEB", "group": "cosmos-2251-debris", "lat": -50.895023805191194, "lon": 92.4001808620528, "alt_km": 758.7756201765069, "timestamp": "2025-12-03T10:52:57.849908+00:00", "meta": {"OBJECT_NAME": "COSMOS 2251 DEB", "OBJECT_ID": "1993-036KS", "EPOCH": "2025-12-02T20:09:55.388160", "MEAN_MOTION": 13.91875746, "ECCENTRICITY": 0.0239688, "INCLINATION": 73.9914, "RA_OF_ASC_NODE": 114.1335, "ARG_OF_PERICENTER": 321.7146, "MEAN_ANOMALY": 153.6594, "EPHEMERIS_TYPE": 0, "CLASSIFICATION_TYPE": "U", "NORAD_CAT_ID": 34121, "ELEMENT_SET_NO": 999, "REV_AT_EPOCH": 84987, "BSTAR": 0.0012769, "MEAN_MOTION_DOT": 2.031e-05, "MEAN_MOTION_DDOT": 0}, "tle": {"line1": "1 34121U 93036KS  25336.84022440  .00002031  00000+0  12769-2 0  9997", "line2": "2 34121  73.9914 114.1335 0239688 321.7146 153.6594 13.91875746849874"}}, "geometry": {"type": "Point", "coordinates": [92.4001808620528, -50.895023805191194]}}, {"type": "Feature", "properties": {"norad_id": 34122, "name": "COSMOS 2251 DEB", "group": "cosmos-2251-debris", "lat": -72.81061248420143, "lon": 68.76354827348463, "alt_km": 713.3904270508256, "timestamp": "2025-12-03T10:52:57.849918+00:00", "meta": {"OBJECT_NAME": "COSMOS 2251 DEB", "OBJECT_ID": "1993-036KT", "EPOCH": "2025-12-02T21:03:11.592000", "MEAN_MOTION": 14.6484012, "ECCENTRICITY": 0.0083829, "INCLINATION": 74.0347, "RA_OF_ASC_NODE": 137.6044, "ARG_OF_PERICENTER": 37.3398, "MEAN_ANOMALY": 82.4826, "EPHEMERIS_TYPE": 0, "CLASSIFICATION_TYPE": "U", "NORAD_CAT_ID": 34122, "ELEMENT_SET_NO": 999, "REV_AT_EPOCH": 88540, "BSTAR": 0.0014048, "MEAN_MOTION_DOT": 7.875e-05, "MEAN_MOTION_DDOT": 0}, "tle": {"line1": "1 34122U 93036KT  25336.87721750  .00007875  00000+0  14048-2 0  9994", "line2": "2 34122  74.0347 137.6044 0083829  37.3398  82.4826 14.64840120885402"}}, "geometry": {"type": "Point", "coordinates": [68.76354827348463, -72.81061248420143]}}, {"type": "Feature", "properties": {"norad_id": 34127, "name": "COSMOS 2251 DEB", "group": "cosmos-2251-debris", "lat": -43.85860902371458, "lon": -103.54425126392893, "alt_km": 727.3367483321099, "timestamp": "2025-12-03T10:52:57.849929+00:00", "meta": {"OBJECT_NAME": "COSMOS 2251 DEB", "OBJECT_ID": "1993-036KY", "EPOCH": "2025-12-02T15:56:36.363264", "MEAN_MOTION": 14.31368037, "ECCENTRICITY": 0.01145641, "INCLINATION": 74.1797, "RA_OF_ASC_NODE": 62.0701, "ARG_OF_PERICENTER": 264.3792, "MEAN_ANOMALY": 217.6472, "EPHEMERIS_TYPE": 0, "CLASSIFICATION_TYPE": "U", "NORAD_CAT_ID": 34127, "ELEMENT_SET_NO": 999, "REV_AT_EPOCH": 86627, "BSTAR": 0.0027240306, "MEAN_MOTION_DOT": 7.74e-05, "MEAN_MOTION_DDOT": 0}, "tle": {"line1": "1 34127U 93036KY  25336.66430976  .00007740  00000+0  27240-2 0  9992", "line2": "2 34127  74.1797  62.0701 0114564 264.3792 217.6472 14.31368037866278"}}, "geometry": {"type": "Point", "coordinates": [-103.54425126392893, -43.85860902371458]}}, {"type": "Feature", "properties": {"norad_id": 34128, "name": "COSMOS 2251 DEB", "group": "cosmos-2251-debris", "lat": -72.73237706360666, "lon": -111.72480167710764, "alt_km": 588.9762993579916, "timestamp": "2025-12-03T10:52:57.849940+00:00", "meta": {"OBJECT_NAME": "COSMOS 2251 DEB", "OBJECT_ID": "1993-036KZ", "EPOCH": "2025-12-03T01:58:32.581056", "MEAN_MOTION": 15.00376734, "ECCENTRICITY": 0.0026562, "INCLINATION": 73.9994, "RA_OF_ASC_NODE": 316.4205, "ARG_OF_PERICENTER": 70.1099, "MEAN_ANOMALY": 2.8505, "EPHEMERIS_TYPE": 0, "CLASSIFICATION_TYPE": "U", "NORAD_CAT_ID": 34128, "ELEMENT_SET_NO": 999, "REV_AT_EPOCH": 89022, "BSTAR": 0.0027602, "MEAN_MOTION_DOT": 0.00035066, "MEAN_MOTION_DDOT": 0}, "tle": {"line1": "1 34128U 93036KZ  25337.08232154  .00035066  00000+0  27602-2 0  9992", "line2": "2 34128  73.9994 316.4205 0026562  70.1099   2.8505 15.00376734890226"}}, "geometry": {"type": "Point", "coordinates": [-111.72480167710764, -72.73237706360666]}}, {"type": "Feature", "properties": {"norad_id": 34129, "name": "COSMOS 2251 DEB", "group": "cosmos-2251-debris", "lat": -42.74532573569768, "lon": -17.64650806306368, "alt_km": 663.7868717130714, "timestamp": "2025-12-03T10:52:57.849951+00:00", "meta": {"OBJECT_NAME": "COSMOS 2251 DEB", "OBJECT_ID": "1993-036LA", "EPOCH": "2025-12-03T02:56:59.399808", "MEAN_MOTION": 14.75471212, "ECCENTRICITY": 0.0032672, "INCLINATION": 74.0355, "RA_OF_ASC_NODE": 358.3416, "ARG_OF_PERICENTER": 83.2142, "MEAN_ANOMALY": 277.2748, "EPHEMERIS_TYPE": 0, "CLASSIFICATION_TYPE": "U", "NORAD_CAT_ID": 34129, "ELEMENT_SET_NO": 999, "REV_AT_EPOCH": 61156, "BSTAR": 0.0015303, "MEAN_MOTION_DOT": 0.00010483, "MEAN_MOTION_DDOT": 0}, "tle": {"line1": "1 34129U 93036LA  25337.12290972  .00010483  00000+0  15303-2 0  9991", "line2": "2 34129  74.0355 358.3416 0032672  83.2142 277.2748 14.75471212611565"}}, "geometry": {"type": "Point", "coordinates": [-17.64650806306368, -42.74532573569768]}}, {"type": "Feature", "properties": {"norad_id": 34136, "name": "COSMOS 2251 DEB", "group": "cosmos-2251-debris", "lat": -35.253964921292116, "lon": 49.26047045551392, "alt_km": 679.4737303891743, "timestamp": "2025-12-03T10:52:57.849962+00:00", "meta": {"OBJECT_NAME": "COSMOS 2251 DEB", "OBJECT_ID": "1993-036LH", "EPOCH": "2025-12-03T04:40:10.765056", "MEAN_MOTION": 14.79951397, "ECCENTRICITY": 0.0086642, "INCLINATION": 74.0219, "RA_OF_ASC_NODE": 61.4553, "ARG_OF_PERICENTER": 186.9039, "MEAN_ANOMALY": 196.9303, "EPHEMERIS_TYPE": 0, "CLASSIFICATION_TYPE": "U", "NORAD_CAT_ID": 34136, "ELEMENT_SET_NO": 999, "REV_AT_EPOCH": 89869, "BSTAR": 0.00083242, "MEAN_MOTION_DOT": 6.675e-05, "MEAN_MOTION_DDOT": 0}, "tle": {"line1": "1 34136U 93036LH  25337.19456904  .00006675  00000+0  83242-3 0  9991", "line2": "2 34136  74.0219  61.4553 0086642 186.9039 196.9303 14.79951397898694"}}, "geometry": {"type": "Point", "coordinates": [49.26047045551392, -35.253964921292116]}}, {"type": "Feature", "properties": {"norad_id": 34139, "name": "COSMOS 2251 DEB", "group": "cosmos-2251-debris", "lat": 26.35425110592626, "lon": -80.08512029345543, "alt_km": 673.6451128577037, "timestamp": "2025-12-03T10:52:57.849973+00:00", "meta": {"OBJECT_NAME": "COSMOS 2251 DEB", "OBJECT_ID": "1993-036LL", "EPOCH": "2025-12-02T21:52:21.942048", "MEAN_MOTION": 14.58823939, "ECCENTRICITY": 0.004262, "INCLINATION": 74.0311, "RA_OF_ASC_NODE": 272.7918, "ARG_OF_PERICENTER": 345.4381, "MEAN_ANOMALY": 76.0951, "EPHEMERIS_TYPE": 0, "CLASSIFICATION_TYPE": "U", "NORAD_CAT_ID": 34139, "ELEMENT_SET_NO": 999, "REV_AT_EPOCH": 88006, "BSTAR": 0.0022796, "MEAN_MOTION_DOT": 0.00010785, "MEAN_MOTION_DDOT": 0}, "tle": {"line1": "1 34139U 93036LL  25336.91136507  .00010785  00000+0  22796-2 0  9990", "line2": "2 34139  74.0311 272.7918 0042620 345.4381  76.0951 14.58823939880068"}}, "geometry": {"type": "Point", "coordinates": [-80.08512029345543, 26.35425110592626]}}]}